[{"OBJECT_NAME":"STARLINK-3902","OBJECT_ID":"2022-049AN","EPOCH":"2026-03-09T07:46:08.337504","MEAN_MOTION":15.08818514,"ECCENTRICITY":0.00013611,"INCLINATION":53.2184,"RA_OF_ASC_NODE":50.8701,"ARG_OF_PERICENTER":87.9004,"MEAN_ANOMALY":272.2144,"EPHEMERIS_TYPE":0,"CLASSIFICATION_TYPE":"U","NORAD_CAT_ID":52487,"ELEMENT_SET_NO":999,"REV_AT_EPOCH":21357,"BSTAR":5.010715e-6,"MEAN_MOTION_DOT":-2.08e-6,"MEAN_MOTION_DDOT":0},{"OBJECT_NAME":"AAC-HSI-SAT1","OBJECT_ID":"2023-054AZ","EPOCH":"2026-03-09T21:58:39.446112","MEAN_MOTION":15.121108,"ECCENTRICITY":0.00115868,"INCLINATION":97.3836,"RA_OF_ASC_NODE":308.6521,"ARG_OF_PERICENTER":105.3166,"MEAN_ANOMALY":254.9346,"EPHEMERIS_TYPE":0,"CLASSIFICATION_TYPE":"U","NORAD_CAT_ID":56225,"ELEMENT_SET_NO":999,"REV_AT_EPOCH":16036,"BSTAR":0.00016323049,"MEAN_MOTION_DOT":2.752e-5,"MEAN_MOTION_DDOT":0}]
